{"fetched_at":"2026-07-05T17:36:07.652Z","source":"https://celestrak.org/NORAD/elements/gp.php?GROUP=kuiper&FORMAT=JSON","constellation":"kuiper","records":[{"OBJECT_NAME":"KUIPER-00034","OBJECT_ID":"2025-088Z","EPOCH":"2026-07-04T15:56:02.510880","CLASSIFICATION_TYPE":"U","MEAN_MOTION":14.79958574,"ECCENTRICITY":0.0000101,"INCLINATION":51.9022,"RA_OF_ASC_NODE":290.8525,"ARG_OF_PERICENTER":110.2387,"MEAN_ANOMALY":249.8586,"EPHEMERIS_TYPE":0,"NORAD_CAT_ID":63747,"ELEMENT_SET_NO":999,"REV_AT_EPOCH":6514,"BSTAR":0.00060629226,"MEAN_MOTION_DOT":0.00004407,"MEAN_MOTION_DDOT":0},{"OBJECT_NAME":"KUIPER-00035","OBJECT_ID":"2025-088AA","EPOCH":"2026-07-04T15:17:15.813312","CLASSIFICATION_TYPE":"U","MEAN_MOTION":14.79914322,"ECCENTRICITY":0.00006382,"INCLINATION":51.9003,"RA_OF_ASC_NODE":315.9495,"ARG_OF_PERICENTER":97.3948,"MEAN_ANOMALY":262.7087,"EPHEMERIS_TYPE":0,"NORAD_CAT_ID":63748,"ELEMENT_SET_NO":999,"REV_AT_EPOCH":6484,"BSTAR":0.000117212,"MEAN_MOTION_DOT":0.00000672,"MEAN_MOTION_DDOT":0},{"OBJECT_NAME":"KUIPER-00037","OBJECT_ID":"2025-088AB","EPOCH":"2026-07-04T15:07:04.160928","CLASSIFICATION_TYPE":"U","MEAN_MOTION":14.79935318,"ECCENTRICITY":0.00007264,"INCLINATION":51.9018,"RA_OF_ASC_NODE":314.8367,"ARG_OF_PERICENTER":103.5472,"MEAN_ANOMALY":256.5572,"EPHEMERIS_TYPE":0,"NORAD_CAT_ID":63749,"ELEMENT_SET_NO":999,"REV_AT_EPOCH":6564,"BSTAR":0.000067320486,"MEAN_MOTION_DOT":0.00000292,"MEAN_MOTION_DDOT":0},{"OBJECT_NAME":"KUIPER-00038","OBJECT_ID":"2025-088AC","EPOCH":"2026-07-04T16:29:11.529600","CLASSIFICATION_TYPE":"U","MEAN_MOTION":14.7993339,"ECCENTRICITY":0.00007805,"INCLINATION":51.9022,"RA_OF_ASC_NODE":300.7497,"ARG_OF_PERICENTER":104.8305,"MEAN_ANOMALY":255.2744,"EPHEMERIS_TYPE":0,"NORAD_CAT_ID":63750,"ELEMENT_SET_NO":999,"REV_AT_EPOCH":6484,"BSTAR":0.00014145453,"MEAN_MOTION_DOT":0.00000857,"MEAN_MOTION_DDOT":0},{"OBJECT_NAME":"KUIPER-00039","OBJECT_ID":"2025-134A","EPOCH":"2026-07-05T03:10:23.227392","CLASSIFICATION_TYPE":"U","MEAN_MOTION":14.79934399,"ECCENTRICITY":0.00010166,"INCLINATION":51.9009,"RA_OF_ASC_NODE":73.7776,"ARG_OF_PERICENTER":108.2678,"MEAN_ANOMALY":251.8395,"EPHEMERIS_TYPE":0,"NORAD_CAT_ID":64500,"ELEMENT_SET_NO":999,"REV_AT_EPOCH":5746,"BSTAR":0.00025514715,"MEAN_MOTION_DOT":0.00001724,"MEAN_MOTION_DDOT":0},{"OBJECT_NAME":"KUIPER-00040","OBJECT_ID":"2025-134B","EPOCH":"2026-07-05T02:06:14.947200","CLASSIFICATION_TYPE":"U","MEAN_MOTION":14.79935063,"ECCENTRICITY":0.00008904,"INCLINATION":51.8975,"RA_OF_ASC_NODE":84.0583,"ARG_OF_PERICENTER":92.957,"MEAN_ANOMALY":267.1494,"EPHEMERIS_TYPE":0,"NORAD_CAT_ID":64501,"ELEMENT_SET_NO":999,"REV_AT_EPOCH":5731,"BSTAR":0.00065506602,"MEAN_MOTION_DOT":0.00004776,"MEAN_MOTION_DDOT":0},{"OBJECT_NAME":"KUIPER-00041","OBJECT_ID":"2025-134C","EPOCH":"2026-07-04T10:38:32.580096","CLASSIFICATION_TYPE":"U","MEAN_MOTION":14.7993183,"ECCENTRICITY":0.00010757,"INCLINATION":51.8974,"RA_OF_ASC_NODE":89.2912,"ARG_OF_PERICENTER":98.2052,"MEAN_ANOMALY":261.9032,"EPHEMERIS_TYPE":0,"NORAD_CAT_ID":64502,"ELEMENT_SET_NO":999,"REV_AT_EPOCH":5718,"BSTAR":0.00030180709,"MEAN_MOTION_DOT":0.0000208,"MEAN_MOTION_DDOT":0},{"OBJECT_NAME":"KUIPER-00042","OBJECT_ID":"2025-134D","EPOCH":"2026-07-04T18:03:53.324928","CLASSIFICATION_TYPE":"U","MEAN_MOTION":14.79934304,"ECCENTRICITY":0.00005966,"INCLINATION":51.8971,"RA_OF_ASC_NODE":82.8992,"ARG_OF_PERICENTER":97.5168,"MEAN_ANOMALY":262.5862,"EPHEMERIS_TYPE":0,"NORAD_CAT_ID":64503,"ELEMENT_SET_NO":999,"REV_AT_EPOCH":5730,"BSTAR":0.00027861185,"MEAN_MOTION_DOT":0.00001903,"MEAN_MOTION_DDOT":0},{"OBJECT_NAME":"KUIPER-00043","OBJECT_ID":"2025-134E","EPOCH":"2026-07-05T02:21:45.380160","CLASSIFICATION_TYPE":"U","MEAN_MOTION":14.79931053,"ECCENTRICITY":0.00007621,"INCLINATION":51.9018,"RA_OF_ASC_NODE":73.8674,"ARG_OF_PERICENTER":106.5289,"MEAN_ANOMALY":253.5757,"EPHEMERIS_TYPE":0,"NORAD_CAT_ID":64504,"ELEMENT_SET_NO":999,"REV_AT_EPOCH":5746,"BSTAR":0.00023592306,"MEAN_MOTION_DOT":0.00001578,"MEAN_MOTION_DDOT":0},{"OBJECT_NAME":"KUIPER-00044","OBJECT_ID":"2025-134F","EPOCH":"2026-07-05T03:39:35.116128","CLASSIFICATION_TYPE":"U","MEAN_MOTION":14.79933459,"ECCENTRICITY":0.00008693,"INCLINATION":51.8995,"RA_OF_ASC_NODE":86.1357,"ARG_OF_PERICENTER":97.5899,"MEAN_ANOMALY":262.5162,"EPHEMERIS_TYPE":0,"NORAD_CAT_ID":64505,"ELEMENT_SET_NO":999,"REV_AT_EPOCH":5729,"BSTAR":0.00044296623,"MEAN_MOTION_DOT":0.00003157,"MEAN_MOTION_DDOT":0},{"OBJECT_NAME":"KUIPER-00046","OBJECT_ID":"2025-134G","EPOCH":"2026-07-05T02:54:49.065408","CLASSIFICATION_TYPE":"U","MEAN_MOTION":14.79916118,"ECCENTRICITY":0.00007652,"INCLINATION":51.8974,"RA_OF_ASC_NODE":83.7505,"ARG_OF_PERICENTER":102.8292,"MEAN_ANOMALY":257.2756,"EPHEMERIS_TYPE":0,"NORAD_CAT_ID":64506,"ELEMENT_SET_NO":999,"REV_AT_EPOCH":5732,"BSTAR":0.00039766786,"MEAN_MOTION_DOT":0.0000281,"MEAN_MOTION_DDOT":0},{"OBJECT_NAME":"KUIPER-00047","OBJECT_ID":"2025-134H","EPOCH":"2026-07-05T01:11:41.385120","CLASSIFICATION_TYPE":"U","MEAN_MOTION":14.79930966,"ECCENTRICITY":0.00008197,"INCLINATION":51.8988,"RA_OF_ASC_NODE":56.5883,"ARG_OF_PERICENTER":116.7351,"MEAN_ANOMALY":243.3696,"EPHEMERIS_TYPE":0,"NORAD_CAT_ID":64507,"ELEMENT_SET_NO":999,"REV_AT_EPOCH":5769,"BSTAR":0.00015045874,"MEAN_MOTION_DOT":0.00000926,"MEAN_MOTION_DDOT":0},{"OBJECT_NAME":"KUIPER-00048","OBJECT_ID":"2025-134J","EPOCH":"2026-07-05T00:23:01.573152","CLASSIFICATION_TYPE":"U","MEAN_MOTION":14.79926209,"ECCENTRICITY":0.00007058,"INCLINATION":51.8999,"RA_OF_ASC_NODE":56.7531,"ARG_OF_PERICENTER":100.6571,"MEAN_ANOMALY":259.4471,"EPHEMERIS_TYPE":0,"NORAD_CAT_ID":64508,"ELEMENT_SET_NO":999,"REV_AT_EPOCH":5769,"BSTAR":0.00011599405,"MEAN_MOTION_DOT":0.00000663,"MEAN_MOTION_DDOT":0},{"OBJECT_NAME":"KUIPER-00049","OBJECT_ID":"2025-134K","EPOCH":"2026-07-05T02:29:31.026048","CLASSIFICATION_TYPE":"U","MEAN_MOTION":14.79941633,"ECCENTRICITY":0.00006817,"INCLINATION":51.8992,"RA_OF_ASC_NODE":68.8285,"ARG_OF_PERICENTER":100.7143,"MEAN_ANOMALY":259.3896,"EPHEMERIS_TYPE":0,"NORAD_CAT_ID":64509,"ELEMENT_SET_NO":999,"REV_AT_EPOCH":5753,"BSTAR":0.00073830988,"MEAN_MOTION_DOT":0.00005413,"MEAN_MOTION_DDOT":0},{"OBJECT_NAME":"KUIPER-00050","OBJECT_ID":"2025-134L","EPOCH":"2026-07-05T01:19:27.297984","CLASSIFICATION_TYPE":"U","MEAN_MOTION":14.7992917,"ECCENTRICITY":0.00007241,"INCLINATION":51.8991,"RA_OF_ASC_NODE":51.5655,"ARG_OF_PERICENTER":102.5252,"MEAN_ANOMALY":257.5792,"EPHEMERIS_TYPE":0,"NORAD_CAT_ID":64510,"ELEMENT_SET_NO":999,"REV_AT_EPOCH":5777,"BSTAR":0.00015947546,"MEAN_MOTION_DOT":0.00000995,"MEAN_MOTION_DDOT":0},{"OBJECT_NAME":"KUIPER-00051","OBJECT_ID":"2025-134M","EPOCH":"2026-07-04T22:40:28.769088","CLASSIFICATION_TYPE":"U","MEAN_MOTION":14.79934042,"ECCENTRICITY":0.00009138,"INCLINATION":51.9008,"RA_OF_ASC_NODE":68.2259,"ARG_OF_PERICENTER":86.1614,"MEAN_ANOMALY":273.9453,"EPHEMERIS_TYPE":0,"NORAD_CAT_ID":64511,"ELEMENT_SET_NO":999,"REV_AT_EPOCH":5752,"BSTAR":0.00085681151,"MEAN_MOTION_DOT":0.00006317,"MEAN_MOTION_DDOT":0},{"OBJECT_NAME":"KUIPER-00053","OBJECT_ID":"2025-134P","EPOCH":"2026-07-05T01:04:37.741728","CLASSIFICATION_TYPE":"U","MEAN_MOTION":14.81678086,"ECCENTRICITY":0.00002656,"INCLINATION":51.9009,"RA_OF_ASC_NODE":63.1498,"ARG_OF_PERICENTER":271.7845,"MEAN_ANOMALY":88.3088,"EPHEMERIS_TYPE":0,"NORAD_CAT_ID":64513,"ELEMENT_SET_NO":999,"REV_AT_EPOCH":5760,"BSTAR":0.00045580888,"MEAN_MOTION_DOT":0.000034,"MEAN_MOTION_DDOT":0},{"OBJECT_NAME":"KUIPER-00054","OBJECT_ID":"2025-134Q","EPOCH":"2026-07-05T00:19:08.538528","CLASSIFICATION_TYPE":"U","MEAN_MOTION":14.79968712,"ECCENTRICITY":0.00007829,"INCLINATION":51.8983,"RA_OF_ASC_NODE":59.2439,"ARG_OF_PERICENTER":112.4191,"MEAN_ANOMALY":247.6855,"EPHEMERIS_TYPE":0,"NORAD_CAT_ID":64514,"ELEMENT_SET_NO":999,"REV_AT_EPOCH":5765,"BSTAR":0.0021602892,"MEAN_MOTION_DOT":0.00016301,"MEAN_MOTION_DDOT":0},{"OBJECT_NAME":"KUIPER-00055","OBJECT_ID":"2025-134R","EPOCH":"2026-07-04T23:07:07.324608","CLASSIFICATION_TYPE":"U","MEAN_MOTION":14.79927541,"ECCENTRICITY":0.0000746,"INCLINATION":51.9015,"RA_OF_ASC_NODE":12.0954,"ARG_OF_PERICENTER":108.5674,"MEAN_ANOMALY":251.537,"EPHEMERIS_TYPE":0,"NORAD_CAT_ID":64515,"ELEMENT_SET_NO":999,"REV_AT_EPOCH":5831,"BSTAR":0.00034930114,"MEAN_MOTION_DOT":0.00002442,"MEAN_MOTION_DDOT":0},{"OBJECT_NAME":"KUIPER-00056","OBJECT_ID":"2025-134S","EPOCH":"2026-07-05T01:00:02.769408","CLASSIFICATION_TYPE":"U","MEAN_MOTION":14.7992346,"ECCENTRICITY":0.00010592,"INCLINATION":51.8972,"RA_OF_ASC_NODE":64.2107,"ARG_OF_PERICENTER":96.5288,"MEAN_ANOMALY":263.5795,"EPHEMERIS_TYPE":0,"NORAD_CAT_ID":64516,"ELEMENT_SET_NO":999,"REV_AT_EPOCH":5759,"BSTAR":0.0001476269,"MEAN_MOTION_DOT":0.00000904,"MEAN_MOTION_DDOT":0},{"OBJECT_NAME":"KUIPER-00057","OBJECT_ID":"2025-134T","EPOCH":"2026-07-03T00:11:03.799968","CLASSIFICATION_TYPE":"U","MEAN_MOTION":14.79936991,"ECCENTRICITY":0.0000715,"INCLINATION":51.8994,"RA_OF_ASC_NODE":80.6379,"ARG_OF_PERICENTER":102.1975,"MEAN_ANOMALY":257.9068,"EPHEMERIS_TYPE":0,"NORAD_CAT_ID":64517,"ELEMENT_SET_NO":999,"REV_AT_EPOCH":5718,"BSTAR":0.00070124,"MEAN_MOTION_DOT":0.00005129,"MEAN_MOTION_DDOT":0},{"OBJECT_NAME":"KUIPER-00058","OBJECT_ID":"2025-134U","EPOCH":"2026-07-04T09:32:20.222592","CLASSIFICATION_TYPE":"U","MEAN_MOTION":14.79930284,"ECCENTRICITY":0.0000761,"INCLINATION":51.9031,"RA_OF_ASC_NODE":69.462,"ARG_OF_PERICENTER":94.1733,"MEAN_ANOMALY":265.9316,"EPHEMERIS_TYPE":0,"NORAD_CAT_ID":64518,"ELEMENT_SET_NO":999,"REV_AT_EPOCH":5746,"BSTAR":0.00036413972,"MEAN_MOTION_DOT":0.00002556,"MEAN_MOTION_DDOT":0},{"OBJECT_NAME":"KUIPER-00059","OBJECT_ID":"2025-134V","EPOCH":"2026-07-04T22:38:03.895296","CLASSIFICATION_TYPE":"U","MEAN_MOTION":14.79930684,"ECCENTRICITY":0.00008613,"INCLINATION":51.8987,"RA_OF_ASC_NODE":62.09,"ARG_OF_PERICENTER":101.3169,"MEAN_ANOMALY":258.789,"EPHEMERIS_TYPE":0,"NORAD_CAT_ID":64519,"ELEMENT_SET_NO":999,"REV_AT_EPOCH":5761,"BSTAR":0.00030902943,"MEAN_MOTION_DOT":0.00002135,"MEAN_MOTION_DDOT":0}]}
